OSCAR 7 (AO-7)          
1 07530U 74089B   26178.03954676 -.00000030  00000+0  10421-3 0  9991
2 07530 101.9899 191.3888 0012643 111.8939 316.9685 12.53698230361759
PHASE 3B (AO-10)        
1 14129U 83058B   26177.59526761 -.00000217  00000+0  00000+0 0  9994
2 14129  25.9202 218.0092 6007622 118.2548 314.1516  2.05872938295688
UOSAT 2 (UO-11)         
1 14781U 84021B   26178.15510200  .00001195  00000+0  12712-3 0  9995
2 14781  97.8062 143.6186 0008497 141.6866 218.4958 14.90807044258610
LUSAT (LO-19)           
1 20442U 90005G   26178.29842016  .00000122  00000+0  60289-4 0  9995
2 20442  98.8847 200.3825 0011712 171.1543 188.9849 14.34126057903846
EYESAT A (AO-27)        
1 22825U 93061C   26178.13882514  .00000087  00000+0  50002-4 0  9999
2 22825  98.6877 245.5486 0009478  74.1419 286.0808 14.30944709708428
ITAMSAT (IO-26)         
1 22826U 93061D   26178.18517105  .00000088  00000+0  50146-4 0  9996
2 22826  98.6824 245.5135 0009860  58.9452 301.2698 14.31371902708746
RADIO ROSTO (RS15)      
1 23439U 94085A   26178.04915902 -.00000051  00000+0 -25429-3 0  9993
2 23439  64.8184 287.2670 0156279   2.0531 358.1003 11.27583418297016
JAS-2 (FO-29)           
1 24278U 96046B   26178.29218336 -.00000015  00000+0  18032-4 0  9990
2 24278  98.5231  25.7796 0350892  70.2891 293.5744 13.53274805474538
TECHSAT 1B (GO-32)      
1 25397U 98043D   26178.24961874  .00000060  00000+0  46181-4 0  9994
2 25397  99.0071 171.2622 0001555 144.1868 215.9414 14.24430252452760
ISS (ZARYA)             
1 25544U 98067A   26178.25148564  .00007401  00000+0  14016-3 0  9995
2 25544  51.6322 250.2737 0004284 237.3448 122.7128 15.49452150573314
PCSAT (NO-44)           
1 26931U 01043C   26178.28688483  .00000091  00000+0  64762-4 0  9998
2 26931  67.0492 218.1495 0006038 265.1683  94.8730 14.31959206291899
SAUDISAT 1C (SO-50)     
1 27607U 02058C   26178.20265003  .00000946  00000+0  12876-3 0  9994
2 27607  64.5520  97.9980 0075030 260.6035  98.6583 14.83066892265947
CUTE-1 (CO-55)          
1 27844U 03031E   26178.29336883  .00000290  00000+0  14447-3 0  9991
2 27844  98.6736 186.7252 0010153 149.6738 210.5031 14.24341593193118
CUBESAT XI-IV (CO-57)   
1 27848U 03031J   26177.93548419  .00000243  00000+0  12580-3 0  9999
2 27848  98.6768 186.0767 0009653 168.4758 191.6643 14.23625736192766
MOZHAETS 4 (RS22)       
1 27939U 03042A   26178.34173791  .00000635  00000+0  10610-3 0  9992
2 27939  98.3471   2.9875 0010070 233.1070 248.6192 14.73483100217046
CUBESAT XI-V            
1 28895U 05043F   26177.91503073  .00001438  00000+0  23373-3 0  9991
2 28895  98.2993 333.7414 0014316 169.8184 190.3315 14.72656457103183
CUTE-1.7+APD II (CO-65) 
1 32785U 08021C   26178.25838127  .00004840  00000+0  30559-3 0  9996
2 32785  97.8271 159.8869 0008729   7.6473 352.4887 15.09544451986716
SEEDS II (CO-66)        
1 32791U 08021J   26178.25357930  .00019593  00000+0  61471-3 0  9999
2 32791  97.7515 176.6340 0000600 209.4374 150.6834 15.33086255988831
YUBILEINY (RS30)        
1 32953U 08025A   26178.23869723  .00000108  00000+0  70984-3 0  9990
2 32953  82.5045 349.1866 0018564 290.7760  69.1330 12.43180277820940
KKS-1 (KISEKI)          
1 33499U 09002H   26178.24152081  .00001344  00000+0  17160-3 0  9995
2 33499  98.1187 100.8432 0006395 255.9703 104.0799 14.83148150937684
SWISSCUBE               
1 35932U 09051B   26178.22596677  .00000996  00000+0  20612-3 0  9992
2 35932  98.4029  86.2889 0006694 170.0562 190.0773 14.62499621890629
BEESAT-1                
1 35933U 09051C   26177.69301354  .00000752  00000+0  16076-3 0  9998
2 35933  98.3957  85.3622 0004848 183.3217 176.7952 14.61734342890572
ITUPSAT1                
1 35935U 09051E   26177.69222981  .00000700  00000+0  15443-3 0  9998
2 35935  98.4042  84.5432 0006750 199.9772 160.1164 14.60453570890126
XIWANG-1 (HOPE-1)       
1 36122U 09072B   26178.27576440 -.00000007  00000+0  96934-4 0  9993
2 36122 100.4023 131.9468 0007048 206.7617 153.3133 13.16440218794331
O/OREOS (USA 219)       
1 37224U 10062C   26178.04056890  .00002307  00000+0  22310-3 0  9995
2 37224  71.9714  58.0196 0012923  42.0426 318.1734 14.93783616118110
JUGNU                   
1 37839U 11058B   26177.91378177  .00000404  00000+0  71065-4 0  9991
2 37839  19.9597 249.3371 0018444 183.2856 332.8974 14.13779071760408
SRMSAT                  
1 37841U 11058D   26178.20632691  .00000372  00000+0  58207-4 0  9998
2 37841  19.9735 358.8265 0011727 314.5587 200.6524 14.11577536759232
STRAND-1                
1 39090U 13009E   26177.94228705  .00000286  00000+0  11041-3 0  9999
2 39090  98.3924 357.9366 0008273 193.8738 166.2222 14.37168802698460
ZACUBE-1 (TSHEPISOSAT)  
1 39417U 13066B   26178.13884487  .00003358  00000+0  26151-3 0  9993
2 39417  97.8047 140.5267 0042183 213.8179 146.0354 15.01240877682223
GOMX-1                  
1 39430U 13066Q   26178.26362956  .00002057  00000+0  31241-3 0  9995
2 39430  97.6484  18.0903 0129792  45.5773 315.5969 14.69493788671394
